{
  "type": "FeatureCollection",
  "name": "charging_town",
  "crs": {
    "type": "name",
    "properties": {
      "name": "urn:ogc:def:crs:OGC:1.3:CRS84"
    }
  },
  "features": [
    {
      "type": "Feature",
      "properties": {
        "name": "城市河道-001",
        "type": "water"
      },
      "geometry": {
        "type": "Polygon",
        "coordinates": [
          [
            [
              113.361105,
              21.8382021
            ],
            [
              114.761105,
              21.8382021
            ],
            [
              114.761105,
              23.2382021
            ],
            [
              113.361105,
              23.2382021
            ],
            [
              113.361105,
              21.8382021
            ]
          ]
        ]
      }
    },
    {
      "type": "Feature",
      "properties": {
        "name": "中央广场-002",
        "type": "sidewalk"
      },
      "geometry": {
        "type": "Polygon",
        "coordinates": [
          [
            [
              113.3546673,
              21.8352291
            ],
            [
              114.7546673,
              21.8352291
            ],
            [
              114.7546673,
              23.2352291
            ],
            [
              113.3546673,
              23.2352291
            ],
            [
              113.3546673,
              21.8352291
            ]
          ]
        ]
      }
    },
    {
      "type": "Feature",
      "properties": {
        "name": "道路-003",
        "type": "road"
      },
      "geometry": {
        "type": "Polygon",
        "coordinates": [
          [
            [
              113.3496602,
              21.8339078
            ],
            [
              114.7496602,
              21.8339078
            ],
            [
              114.7496602,
              23.2339078
            ],
            [
              113.3496602,
              23.2339078
            ],
            [
              113.3496602,
              21.8339078
            ]
          ]
        ]
      }
    },
    {
      "type": "Feature",
      "properties": {
        "name": "道路-004",
        "type": "road"
      },
      "geometry": {
        "type": "Polygon",
        "coordinates": [
          [
            [
              113.3496602,
              21.8398538
            ],
            [
              114.7496602,
              21.8398538
            ],
            [
              114.7496602,
              23.2398538
            ],
            [
              113.3496602,
              23.2398538
            ],
            [
              113.3496602,
              21.8398538
            ]
          ]
        ]
      }
    },
    {
      "type": "Feature",
      "properties": {
        "name": "道路-005",
        "type": "road"
      },
      "geometry": {
        "type": "Polygon",
        "coordinates": [
          [
            [
              113.3496602,
              21.8411751
            ],
            [
              114.7496602,
              21.8411751
            ],
            [
              114.7496602,
              23.2411751
            ],
            [
              113.3496602,
              23.2411751
            ],
            [
              113.3496602,
              21.8411751
            ]
          ]
        ]
      }
    },
    {
      "type": "Feature",
      "properties": {
        "name": "主街-006",
        "type": "road"
      },
      "geometry": {
        "type": "Polygon",
        "coordinates": [
          [
            [
              113.3514485,
              21.8372111
            ],
            [
              114.7514485,
              21.8372111
            ],
            [
              114.7514485,
              23.2372111
            ],
            [
              113.3514485,
              23.2372111
            ],
            [
              113.3514485,
              21.8372111
            ]
          ]
        ]
      }
    },
    {
      "type": "Feature",
      "properties": {
        "name": "道路-007",
        "type": "road"
      },
      "geometry": {
        "type": "Polygon",
        "coordinates": [
          [
            [
              113.3439378,
              21.8375414
            ],
            [
              114.7439378,
              21.8375414
            ],
            [
              114.7439378,
              23.2375414
            ],
            [
              113.3439378,
              23.2375414
            ],
            [
              113.3439378,
              21.8375414
            ]
          ]
        ]
      }
    },
    {
      "type": "Feature",
      "properties": {
        "name": "道路-008",
        "type": "road"
      },
      "geometry": {
        "type": "Polygon",
        "coordinates": [
          [
            [
              113.3482296,
              21.8325865
            ],
            [
              114.7482296,
              21.8325865
            ],
            [
              114.7482296,
              23.2325865
            ],
            [
              113.3482296,
              23.2325865
            ],
            [
              113.3482296,
              21.8325865
            ]
          ]
        ]
      }
    },
    {
      "type": "Feature",
      "properties": {
        "name": "道路-009",
        "type": "road"
      },
      "geometry": {
        "type": "Polygon",
        "coordinates": [
          [
            [
              113.3525214,
              21.8375414
            ],
            [
              114.7525214,
              21.8375414
            ],
            [
              114.7525214,
              23.2375414
            ],
            [
              113.3525214,
              23.2375414
            ],
            [
              113.3525214,
              21.8375414
            ]
          ]
        ]
      }
    },
    {
      "type": "Feature",
      "properties": {
        "name": "道路-010",
        "type": "road"
      },
      "geometry": {
        "type": "Polygon",
        "coordinates": [
          [
            [
              113.3568132,
              21.8322562
            ],
            [
              114.7568132,
              21.8322562
            ],
            [
              114.7568132,
              23.2322562
            ],
            [
              113.3568132,
              23.2322562
            ],
            [
              113.3568132,
              21.8322562
            ]
          ]
        ]
      }
    },
    {
      "type": "Feature",
      "properties": {
        "name": "人行道-01-011",
        "type": "sidewalk"
      },
      "geometry": {
        "type": "Polygon",
        "coordinates": [
          [
            [
              113.3496602,
              21.8361901
            ],
            [
              114.7496602,
              21.8361901
            ],
            [
              114.7496602,
              23.2361901
            ],
            [
              113.3496602,
              23.2361901
            ],
            [
              113.3496602,
              21.8361901
            ]
          ]
        ]
      }
    },
    {
      "type": "Feature",
      "properties": {
        "name": "人行道-02-012",
        "type": "sidewalk"
      },
      "geometry": {
        "type": "Polygon",
        "coordinates": [
          [
            [
              113.3496602,
              21.8382321
            ],
            [
              114.7496602,
              21.8382321
            ],
            [
              114.7496602,
              23.2382321
            ],
            [
              113.3496602,
              23.2382321
            ],
            [
              113.3496602,
              21.8382321
            ]
          ]
        ]
      }
    },
    {
      "type": "Feature",
      "properties": {
        "name": "人行道-03-013",
        "type": "sidewalk"
      },
      "geometry": {
        "type": "Polygon",
        "coordinates": [
          [
            [
              113.3518061,
              21.839133
            ],
            [
              114.7518061,
              21.839133
            ],
            [
              114.7518061,
              23.239133
            ],
            [
              113.3518061,
              23.239133
            ],
            [
              113.3518061,
              21.839133
            ]
          ]
        ]
      }
    },
    {
      "type": "Feature",
      "properties": {
        "name": "人行道-04-014",
        "type": "sidewalk"
      },
      "geometry": {
        "type": "Polygon",
        "coordinates": [
          [
            [
              113.3518061,
              21.8405745
            ],
            [
              114.7518061,
              21.8405745
            ],
            [
              114.7518061,
              23.2405745
            ],
            [
              113.3518061,
              23.2405745
            ],
            [
              113.3518061,
              21.8405745
            ]
          ]
        ]
      }
    },
    {
      "type": "Feature",
      "properties": {
        "name": "红绿灯-01-015",
        "type": "lamp"
      },
      "geometry": {
        "type": "Polygon",
        "coordinates": [
          [
            [
              113.343151,
              21.8364844
            ],
            [
              114.743151,
              21.8364844
            ],
            [
              114.743151,
              23.2364844
            ],
            [
              113.343151,
              23.2364844
            ],
            [
              113.343151,
              21.8364844
            ]
          ]
        ]
      }
    },
    {
      "type": "Feature",
      "properties": {
        "name": "红绿灯-02-016",
        "type": "lamp"
      },
      "geometry": {
        "type": "Polygon",
        "coordinates": [
          [
            [
              113.343151,
              21.8379378
            ],
            [
              114.743151,
              21.8379378
            ],
            [
              114.743151,
              23.2379378
            ],
            [
              113.343151,
              23.2379378
            ],
            [
              113.343151,
              21.8379378
            ]
          ]
        ]
      }
    },
    {
      "type": "Feature",
      "properties": {
        "name": "红绿灯-03-017",
        "type": "lamp"
      },
      "geometry": {
        "type": "Polygon",
        "coordinates": [
          [
            [
              113.3447247,
              21.8364844
            ],
            [
              114.7447247,
              21.8364844
            ],
            [
              114.7447247,
              23.2364844
            ],
            [
              113.3447247,
              23.2364844
            ],
            [
              113.3447247,
              21.8364844
            ]
          ]
        ]
      }
    },
    {
      "type": "Feature",
      "properties": {
        "name": "红绿灯-04-018",
        "type": "lamp"
      },
      "geometry": {
        "type": "Polygon",
        "coordinates": [
          [
            [
              113.3447247,
              21.8379378
            ],
            [
              114.7447247,
              21.8379378
            ],
            [
              114.7447247,
              23.2379378
            ],
            [
              113.3447247,
              23.2379378
            ],
            [
              113.3447247,
              21.8379378
            ]
          ]
        ]
      }
    },
    {
      "type": "Feature",
      "properties": {
        "name": "车辆-main-east-01-019",
        "type": "car"
      },
      "geometry": {
        "type": "Polygon",
        "coordinates": [
          [
            [
              113.3449457,
              21.8377517
            ],
            [
              114.7449457,
              21.8377517
            ],
            [
              114.7449457,
              23.2377517
            ],
            [
              113.3449457,
              23.2377517
            ],
            [
              113.3449457,
              21.8377517
            ]
          ]
        ]
      }
    },
    {
      "type": "Feature",
      "properties": {
        "name": "车辆-main-east-02-020",
        "type": "car"
      },
      "geometry": {
        "type": "Polygon",
        "coordinates": [
          [
            [
              113.3501479,
              21.8377517
            ],
            [
              114.7501479,
              21.8377517
            ],
            [
              114.7501479,
              23.2377517
            ],
            [
              113.3501479,
              23.2377517
            ],
            [
              113.3501479,
              21.8377517
            ]
          ]
        ]
      }
    },
    {
      "type": "Feature",
      "properties": {
        "name": "车辆-main-east-03-021",
        "type": "car"
      },
      "geometry": {
        "type": "Polygon",
        "coordinates": [
          [
            [
              113.3553501,
              21.8377517
            ],
            [
              114.7553501,
              21.8377517
            ],
            [
              114.7553501,
              23.2377517
            ],
            [
              113.3553501,
              23.2377517
            ],
            [
              113.3553501,
              21.8377517
            ]
          ]
        ]
      }
    },
    {
      "type": "Feature",
      "properties": {
        "name": "车辆-main-west-04-022",
        "type": "car"
      },
      "geometry": {
        "type": "Polygon",
        "coordinates": [
          [
            [
              113.3592518,
              21.8366706
            ],
            [
              114.7592518,
              21.8366706
            ],
            [
              114.7592518,
              23.2366706
            ],
            [
              113.3592518,
              23.2366706
            ],
            [
              113.3592518,
              21.8366706
            ]
          ]
        ]
      }
    },
    {
      "type": "Feature",
      "properties": {
        "name": "车辆-river-east-05-023",
        "type": "car"
      },
      "geometry": {
        "type": "Polygon",
        "coordinates": [
          [
            [
              113.3540496,
              21.840124
            ],
            [
              114.7540496,
              21.840124
            ],
            [
              114.7540496,
              23.240124
            ],
            [
              113.3540496,
              23.240124
            ],
            [
              113.3540496,
              21.840124
            ]
          ]
        ]
      }
    },
    {
      "type": "Feature",
      "properties": {
        "name": "景观树-06-024",
        "type": "tree"
      },
      "geometry": {
        "type": "Polygon",
        "coordinates": [
          [
            [
              113.3453684,
              21.8332471
            ],
            [
              114.7453684,
              21.8332471
            ],
            [
              114.7453684,
              23.2332471
            ],
            [
              113.3453684,
              23.2332471
            ],
            [
              113.3453684,
              21.8332471
            ]
          ]
        ]
      }
    },
    {
      "type": "Feature",
      "properties": {
        "name": "景观树-12-025",
        "type": "tree"
      },
      "geometry": {
        "type": "Polygon",
        "coordinates": [
          [
            [
              113.3475143,
              21.8332471
            ],
            [
              114.7475143,
              21.8332471
            ],
            [
              114.7475143,
              23.2332471
            ],
            [
              113.3475143,
              23.2332471
            ],
            [
              113.3475143,
              21.8332471
            ]
          ]
        ]
      }
    },
    {
      "type": "Feature",
      "properties": {
        "name": "景观树-06-026",
        "type": "tree"
      },
      "geometry": {
        "type": "Polygon",
        "coordinates": [
          [
            [
              113.3503755,
              21.8332471
            ],
            [
              114.7503755,
              21.8332471
            ],
            [
              114.7503755,
              23.2332471
            ],
            [
              113.3503755,
              23.2332471
            ],
            [
              113.3503755,
              21.8332471
            ]
          ]
        ]
      }
    },
    {
      "type": "Feature",
      "properties": {
        "name": "景观树-12-027",
        "type": "tree"
      },
      "geometry": {
        "type": "Polygon",
        "coordinates": [
          [
            [
              113.3525214,
              21.8332471
            ],
            [
              114.7525214,
              21.8332471
            ],
            [
              114.7525214,
              23.2332471
            ],
            [
              113.3525214,
              23.2332471
            ],
            [
              113.3525214,
              21.8332471
            ]
          ]
        ]
      }
    },
    {
      "type": "Feature",
      "properties": {
        "name": "景观树-18-028",
        "type": "tree"
      },
      "geometry": {
        "type": "Polygon",
        "coordinates": [
          [
            [
              113.3546673,
              21.8332471
            ],
            [
              114.7546673,
              21.8332471
            ],
            [
              114.7546673,
              23.2332471
            ],
            [
              113.3546673,
              23.2332471
            ],
            [
              113.3546673,
              21.8332471
            ]
          ]
        ]
      }
    },
    {
      "type": "Feature",
      "properties": {
        "name": "景观树-06-029",
        "type": "tree"
      },
      "geometry": {
        "type": "Polygon",
        "coordinates": [
          [
            [
              113.3589591,
              21.8332471
            ],
            [
              114.7589591,
              21.8332471
            ],
            [
              114.7589591,
              23.2332471
            ],
            [
              113.3589591,
              23.2332471
            ],
            [
              113.3589591,
              21.8332471
            ]
          ]
        ]
      }
    },
    {
      "type": "Feature",
      "properties": {
        "name": "商业街区A-01-030",
        "type": "building_tall",
        "height": 5.25,
        "floor": 3,
        "use": "commercial"
      },
      "geometry": {
        "type": "Polygon",
        "coordinates": [
          [
            [
              113.3403613,
              21.8352291
            ],
            [
              114.7403613,
              21.8352291
            ],
            [
              114.7403613,
              23.2352291
            ],
            [
              113.3403613,
              23.2352291
            ],
            [
              113.3403613,
              21.8352291
            ]
          ]
        ]
      }
    },
    {
      "type": "Feature",
      "properties": {
        "name": "商业街区A-02-031",
        "type": "building_tall",
        "height": 6.0,
        "floor": 4,
        "use": "commercial"
      },
      "geometry": {
        "type": "Polygon",
        "coordinates": [
          [
            [
              113.3410766,
              21.8352291
            ],
            [
              114.7410766,
              21.8352291
            ],
            [
              114.7410766,
              23.2352291
            ],
            [
              113.3410766,
              23.2352291
            ],
            [
              113.3410766,
              21.8352291
            ]
          ]
        ]
      }
    },
    {
      "type": "Feature",
      "properties": {
        "name": "商业街区A-03-032",
        "type": "building_tall",
        "height": 4.88,
        "floor": 3,
        "use": "commercial"
      },
      "geometry": {
        "type": "Polygon",
        "coordinates": [
          [
            [
              113.3417919,
              21.8352291
            ],
            [
              114.7417919,
              21.8352291
            ],
            [
              114.7417919,
              23.2352291
            ],
            [
              113.3417919,
              23.2352291
            ],
            [
              113.3417919,
              21.8352291
            ]
          ]
        ]
      }
    },
    {
      "type": "Feature",
      "properties": {
        "name": "商业街区A-04-033",
        "type": "building_tall",
        "height": 5.62,
        "floor": 3,
        "use": "commercial"
      },
      "geometry": {
        "type": "Polygon",
        "coordinates": [
          [
            [
              113.3425072,
              21.8352291
            ],
            [
              114.7425072,
              21.8352291
            ],
            [
              114.7425072,
              23.2352291
            ],
            [
              113.3425072,
              23.2352291
            ],
            [
              113.3425072,
              21.8352291
            ]
          ]
        ]
      }
    },
    {
      "type": "Feature",
      "properties": {
        "name": "商业街区A-05-034",
        "type": "building_tall",
        "height": 4.5,
        "floor": 3,
        "use": "commercial"
      },
      "geometry": {
        "type": "Polygon",
        "coordinates": [
          [
            [
              113.3432225,
              21.8352291
            ],
            [
              114.7432225,
              21.8352291
            ],
            [
              114.7432225,
              23.2352291
            ],
            [
              113.3432225,
              23.2352291
            ],
            [
              113.3432225,
              21.8352291
            ]
          ]
        ]
      }
    },
    {
      "type": "Feature",
      "properties": {
        "name": "商业街区B-01-035",
        "type": "building_tall",
        "height": 5.25,
        "floor": 3,
        "use": "commercial"
      },
      "geometry": {
        "type": "Polygon",
        "coordinates": [
          [
            [
              113.3446531,
              21.8352291
            ],
            [
              114.7446531,
              21.8352291
            ],
            [
              114.7446531,
              23.2352291
            ],
            [
              113.3446531,
              23.2352291
            ],
            [
              113.3446531,
              21.8352291
            ]
          ]
        ]
      }
    },
    {
      "type": "Feature",
      "properties": {
        "name": "商业街区B-02-036",
        "type": "building_tall",
        "height": 6.0,
        "floor": 4,
        "use": "commercial"
      },
      "geometry": {
        "type": "Polygon",
        "coordinates": [
          [
            [
              113.3453684,
              21.8352291
            ],
            [
              114.7453684,
              21.8352291
            ],
            [
              114.7453684,
              23.2352291
            ],
            [
              113.3453684,
              23.2352291
            ],
            [
              113.3453684,
              21.8352291
            ]
          ]
        ]
      }
    },
    {
      "type": "Feature",
      "properties": {
        "name": "商业街区B-03-037",
        "type": "building_tall",
        "height": 4.88,
        "floor": 3,
        "use": "commercial"
      },
      "geometry": {
        "type": "Polygon",
        "coordinates": [
          [
            [
              113.3460837,
              21.8352291
            ],
            [
              114.7460837,
              21.8352291
            ],
            [
              114.7460837,
              23.2352291
            ],
            [
              113.3460837,
              23.2352291
            ],
            [
              113.3460837,
              21.8352291
            ]
          ]
        ]
      }
    },
    {
      "type": "Feature",
      "properties": {
        "name": "商业街区B-04-038",
        "type": "building_tall",
        "height": 5.62,
        "floor": 3,
        "use": "commercial"
      },
      "geometry": {
        "type": "Polygon",
        "coordinates": [
          [
            [
              113.346799,
              21.8352291
            ],
            [
              114.746799,
              21.8352291
            ],
            [
              114.746799,
              23.2352291
            ],
            [
              113.346799,
              23.2352291
            ],
            [
              113.346799,
              21.8352291
            ]
          ]
        ]
      }
    },
    {
      "type": "Feature",
      "properties": {
        "name": "商业街区B-05-039",
        "type": "building_tall",
        "height": 4.5,
        "floor": 3,
        "use": "commercial"
      },
      "geometry": {
        "type": "Polygon",
        "coordinates": [
          [
            [
              113.3475143,
              21.8352291
            ],
            [
              114.7475143,
              21.8352291
            ],
            [
              114.7475143,
              23.2352291
            ],
            [
              113.3475143,
              23.2352291
            ],
            [
              113.3475143,
              21.8352291
            ]
          ]
        ]
      }
    },
    {
      "type": "Feature",
      "properties": {
        "name": "商业街区C-01-040",
        "type": "building_tall",
        "height": 5.5,
        "floor": 3,
        "use": "commercial"
      },
      "geometry": {
        "type": "Polygon",
        "coordinates": [
          [
            [
              113.3489449,
              21.8352291
            ],
            [
              114.7489449,
              21.8352291
            ],
            [
              114.7489449,
              23.2352291
            ],
            [
              113.3489449,
              23.2352291
            ],
            [
              113.3489449,
              21.8352291
            ]
          ]
        ]
      }
    },
    {
      "type": "Feature",
      "properties": {
        "name": "商业街区C-02-041",
        "type": "building_tall",
        "height": 6.0,
        "floor": 4,
        "use": "commercial"
      },
      "geometry": {
        "type": "Polygon",
        "coordinates": [
          [
            [
              113.3496602,
              21.8352291
            ],
            [
              114.7496602,
              21.8352291
            ],
            [
              114.7496602,
              23.2352291
            ],
            [
              113.3496602,
              23.2352291
            ],
            [
              113.3496602,
              21.8352291
            ]
          ]
        ]
      }
    },
    {
      "type": "Feature",
      "properties": {
        "name": "商业街区C-03-042",
        "type": "building_tall",
        "height": 5.25,
        "floor": 3,
        "use": "commercial"
      },
      "geometry": {
        "type": "Polygon",
        "coordinates": [
          [
            [
              113.3503755,
              21.8352291
            ],
            [
              114.7503755,
              21.8352291
            ],
            [
              114.7503755,
              23.2352291
            ],
            [
              113.3503755,
              23.2352291
            ],
            [
              113.3503755,
              21.8352291
            ]
          ]
        ]
      }
    },
    {
      "type": "Feature",
      "properties": {
        "name": "商业街区C-04-043",
        "type": "building_tall",
        "height": 5.75,
        "floor": 3,
        "use": "commercial"
      },
      "geometry": {
        "type": "Polygon",
        "coordinates": [
          [
            [
              113.3510908,
              21.8352291
            ],
            [
              114.7510908,
              21.8352291
            ],
            [
              114.7510908,
              23.2352291
            ],
            [
              113.3510908,
              23.2352291
            ],
            [
              113.3510908,
              21.8352291
            ]
          ]
        ]
      }
    },
    {
      "type": "Feature",
      "properties": {
        "name": "商业街区C-05-044",
        "type": "building_tall",
        "height": 5.0,
        "floor": 3,
        "use": "commercial"
      },
      "geometry": {
        "type": "Polygon",
        "coordinates": [
          [
            [
              113.3518061,
              21.8352291
            ],
            [
              114.7518061,
              21.8352291
            ],
            [
              114.7518061,
              23.2352291
            ],
            [
              113.3518061,
              23.2352291
            ],
            [
              113.3518061,
              21.8352291
            ]
          ]
        ]
      }
    },
    {
      "type": "Feature",
      "properties": {
        "name": "商业街区D-01-045",
        "type": "building_tall",
        "height": 5.25,
        "floor": 3,
        "use": "commercial"
      },
      "geometry": {
        "type": "Polygon",
        "coordinates": [
          [
            [
              113.3575285,
              21.8352291
            ],
            [
              114.7575285,
              21.8352291
            ],
            [
              114.7575285,
              23.2352291
            ],
            [
              113.3575285,
              23.2352291
            ],
            [
              113.3575285,
              21.8352291
            ]
          ]
        ]
      }
    },
    {
      "type": "Feature",
      "properties": {
        "name": "商业街区D-02-046",
        "type": "building_tall",
        "height": 6.0,
        "floor": 4,
        "use": "commercial"
      },
      "geometry": {
        "type": "Polygon",
        "coordinates": [
          [
            [
              113.3582438,
              21.8352291
            ],
            [
              114.7582438,
              21.8352291
            ],
            [
              114.7582438,
              23.2352291
            ],
            [
              113.3582438,
              23.2352291
            ],
            [
              113.3582438,
              21.8352291
            ]
          ]
        ]
      }
    },
    {
      "type": "Feature",
      "properties": {
        "name": "商业街区D-03-047",
        "type": "building_tall",
        "height": 4.88,
        "floor": 3,
        "use": "commercial"
      },
      "geometry": {
        "type": "Polygon",
        "coordinates": [
          [
            [
              113.3589591,
              21.8352291
            ],
            [
              114.7589591,
              21.8352291
            ],
            [
              114.7589591,
              23.2352291
            ],
            [
              113.3589591,
              23.2352291
            ],
            [
              113.3589591,
              21.8352291
            ]
          ]
        ]
      }
    },
    {
      "type": "Feature",
      "properties": {
        "name": "商业街区E-01-048",
        "type": "building_tall",
        "height": 4.75,
        "floor": 3,
        "use": "commercial"
      },
      "geometry": {
        "type": "Polygon",
        "coordinates": [
          [
            [
              113.3489449,
              21.8385324
            ],
            [
              114.7489449,
              21.8385324
            ],
            [
              114.7489449,
              23.2385324
            ],
            [
              113.3489449,
              23.2385324
            ],
            [
              113.3489449,
              21.8385324
            ]
          ]
        ]
      }
    },
    {
      "type": "Feature",
      "properties": {
        "name": "商业街区E-02-049",
        "type": "building_tall",
        "height": 5.5,
        "floor": 3,
        "use": "commercial"
      },
      "geometry": {
        "type": "Polygon",
        "coordinates": [
          [
            [
              113.3496602,
              21.8385324
            ],
            [
              114.7496602,
              21.8385324
            ],
            [
              114.7496602,
              23.2385324
            ],
            [
              113.3496602,
              23.2385324
            ],
            [
              113.3496602,
              21.8385324
            ]
          ]
        ]
      }
    },
    {
      "type": "Feature",
      "properties": {
        "name": "商业街区E-03-050",
        "type": "building_tall",
        "height": 4.38,
        "floor": 2,
        "use": "commercial"
      },
      "geometry": {
        "type": "Polygon",
        "coordinates": [
          [
            [
              113.3503755,
              21.8385324
            ],
            [
              114.7503755,
              21.8385324
            ],
            [
              114.7503755,
              23.2385324
            ],
            [
              113.3503755,
              23.2385324
            ],
            [
              113.3503755,
              21.8385324
            ]
          ]
        ]
      }
    },
    {
      "type": "Feature",
      "properties": {
        "name": "商业街区E-04-051",
        "type": "building_tall",
        "height": 5.12,
        "floor": 3,
        "use": "commercial"
      },
      "geometry": {
        "type": "Polygon",
        "coordinates": [
          [
            [
              113.3510908,
              21.8385324
            ],
            [
              114.7510908,
              21.8385324
            ],
            [
              114.7510908,
              23.2385324
            ],
            [
              113.3510908,
              23.2385324
            ],
            [
              113.3510908,
              21.8385324
            ]
          ]
        ]
      }
    },
    {
      "type": "Feature",
      "properties": {
        "name": "商业街区E-05-052",
        "type": "building_tall",
        "height": 4.0,
        "floor": 2,
        "use": "commercial"
      },
      "geometry": {
        "type": "Polygon",
        "coordinates": [
          [
            [
              113.3518061,
              21.8385324
            ],
            [
              114.7518061,
              21.8385324
            ],
            [
              114.7518061,
              23.2385324
            ],
            [
              113.3518061,
              23.2385324
            ],
            [
              113.3518061,
              21.8385324
            ]
          ]
        ]
      }
    },
    {
      "type": "Feature",
      "properties": {
        "name": "商业街区F-01-053",
        "type": "building_tall",
        "height": 4.75,
        "floor": 3,
        "use": "commercial"
      },
      "geometry": {
        "type": "Polygon",
        "coordinates": [
          [
            [
              113.3532367,
              21.8385324
            ],
            [
              114.7532367,
              21.8385324
            ],
            [
              114.7532367,
              23.2385324
            ],
            [
              113.3532367,
              23.2385324
            ],
            [
              113.3532367,
              21.8385324
            ]
          ]
        ]
      }
    },
    {
      "type": "Feature",
      "properties": {
        "name": "商业街区F-02-054",
        "type": "building_tall",
        "height": 5.5,
        "floor": 3,
        "use": "commercial"
      },
      "geometry": {
        "type": "Polygon",
        "coordinates": [
          [
            [
              113.353952,
              21.8385324
            ],
            [
              114.753952,
              21.8385324
            ],
            [
              114.753952,
              23.2385324
            ],
            [
              113.353952,
              23.2385324
            ],
            [
              113.353952,
              21.8385324
            ]
          ]
        ]
      }
    },
    {
      "type": "Feature",
      "properties": {
        "name": "商业街区F-03-055",
        "type": "building_tall",
        "height": 4.38,
        "floor": 2,
        "use": "commercial"
      },
      "geometry": {
        "type": "Polygon",
        "coordinates": [
          [
            [
              113.3546673,
              21.8385324
            ],
            [
              114.7546673,
              21.8385324
            ],
            [
              114.7546673,
              23.2385324
            ],
            [
              113.3546673,
              23.2385324
            ],
            [
              113.3546673,
              21.8385324
            ]
          ]
        ]
      }
    },
    {
      "type": "Feature",
      "properties": {
        "name": "商业街区F-04-056",
        "type": "building_tall",
        "height": 5.12,
        "floor": 3,
        "use": "commercial"
      },
      "geometry": {
        "type": "Polygon",
        "coordinates": [
          [
            [
              113.3553826,
              21.8385324
            ],
            [
              114.7553826,
              21.8385324
            ],
            [
              114.7553826,
              23.2385324
            ],
            [
              113.3553826,
              23.2385324
            ],
            [
              113.3553826,
              21.8385324
            ]
          ]
        ]
      }
    },
    {
      "type": "Feature",
      "properties": {
        "name": "商业街区F-05-057",
        "type": "building_tall",
        "height": 4.0,
        "floor": 2,
        "use": "commercial"
      },
      "geometry": {
        "type": "Polygon",
        "coordinates": [
          [
            [
              113.3560979,
              21.8385324
            ],
            [
              114.7560979,
              21.8385324
            ],
            [
              114.7560979,
              23.2385324
            ],
            [
              113.3560979,
              23.2385324
            ],
            [
              113.3560979,
              21.8385324
            ]
          ]
        ]
      }
    },
    {
      "type": "Feature",
      "properties": {
        "name": "商业街区G-01-058",
        "type": "building_tall",
        "height": 4.75,
        "floor": 3,
        "use": "commercial"
      },
      "geometry": {
        "type": "Polygon",
        "coordinates": [
          [
            [
              113.3575285,
              21.8385324
            ],
            [
              114.7575285,
              21.8385324
            ],
            [
              114.7575285,
              23.2385324
            ],
            [
              113.3575285,
              23.2385324
            ],
            [
              113.3575285,
              21.8385324
            ]
          ]
        ]
      }
    },
    {
      "type": "Feature",
      "properties": {
        "name": "商业街区G-02-059",
        "type": "building_tall",
        "height": 5.5,
        "floor": 3,
        "use": "commercial"
      },
      "geometry": {
        "type": "Polygon",
        "coordinates": [
          [
            [
              113.3582438,
              21.8385324
            ],
            [
              114.7582438,
              21.8385324
            ],
            [
              114.7582438,
              23.2385324
            ],
            [
              113.3582438,
              23.2385324
            ],
            [
              113.3582438,
              21.8385324
            ]
          ]
        ]
      }
    },
    {
      "type": "Feature",
      "properties": {
        "name": "商业街区G-03-060",
        "type": "building_tall",
        "height": 4.38,
        "floor": 2,
        "use": "commercial"
      },
      "geometry": {
        "type": "Polygon",
        "coordinates": [
          [
            [
              113.3589591,
              21.8385324
            ],
            [
              114.7589591,
              21.8385324
            ],
            [
              114.7589591,
              23.2385324
            ],
            [
              113.3589591,
              23.2385324
            ],
            [
              113.3589591,
              21.8385324
            ]
          ]
        ]
      }
    },
    {
      "type": "Feature",
      "properties": {
        "name": "住宅街区W-01-061",
        "type": "building",
        "height": 3.0,
        "floor": 2,
        "use": "residential"
      },
      "geometry": {
        "type": "Polygon",
        "coordinates": [
          [
            [
              113.3403613,
              21.8385324
            ],
            [
              114.7403613,
              21.8385324
            ],
            [
              114.7403613,
              23.2385324
            ],
            [
              113.3403613,
              23.2385324
            ],
            [
              113.3403613,
              21.8385324
            ]
          ]
        ]
      }
    },
    {
      "type": "Feature",
      "properties": {
        "name": "住宅街区W-02-062",
        "type": "building",
        "height": 3.4,
        "floor": 2,
        "use": "residential"
      },
      "geometry": {
        "type": "Polygon",
        "coordinates": [
          [
            [
              113.3410766,
              21.8385324
            ],
            [
              114.7410766,
              21.8385324
            ],
            [
              114.7410766,
              23.2385324
            ],
            [
              113.3410766,
              23.2385324
            ],
            [
              113.3410766,
              21.8385324
            ]
          ]
        ]
      }
    },
    {
      "type": "Feature",
      "properties": {
        "name": "住宅街区W-03-063",
        "type": "building",
        "height": 2.8,
        "floor": 1,
        "use": "residential"
      },
      "geometry": {
        "type": "Polygon",
        "coordinates": [
          [
            [
              113.3417919,
              21.8385324
            ],
            [
              114.7417919,
              21.8385324
            ],
            [
              114.7417919,
              23.2385324
            ],
            [
              113.3417919,
              23.2385324
            ],
            [
              113.3417919,
              21.8385324
            ]
          ]
        ]
      }
    },
    {
      "type": "Feature",
      "properties": {
        "name": "住宅街区W-04-064",
        "type": "building",
        "height": 3.2,
        "floor": 2,
        "use": "residential"
      },
      "geometry": {
        "type": "Polygon",
        "coordinates": [
          [
            [
              113.3425072,
              21.8385324
            ],
            [
              114.7425072,
              21.8385324
            ],
            [
              114.7425072,
              23.2385324
            ],
            [
              113.3425072,
              23.2385324
            ],
            [
              113.3425072,
              21.8385324
            ]
          ]
        ]
      }
    },
    {
      "type": "Feature",
      "properties": {
        "name": "住宅街区W-05-065",
        "type": "building",
        "height": 2.6,
        "floor": 1,
        "use": "residential"
      },
      "geometry": {
        "type": "Polygon",
        "coordinates": [
          [
            [
              113.3432225,
              21.8385324
            ],
            [
              114.7432225,
              21.8385324
            ],
            [
              114.7432225,
              23.2385324
            ],
            [
              113.3432225,
              23.2385324
            ],
            [
              113.3432225,
              21.8385324
            ]
          ]
        ]
      }
    },
    {
      "type": "Feature",
      "properties": {
        "name": "住宅街区E-01-066",
        "type": "building",
        "height": 3.0,
        "floor": 2,
        "use": "residential"
      },
      "geometry": {
        "type": "Polygon",
        "coordinates": [
          [
            [
              113.3446531,
              21.8385324
            ],
            [
              114.7446531,
              21.8385324
            ],
            [
              114.7446531,
              23.2385324
            ],
            [
              113.3446531,
              23.2385324
            ],
            [
              113.3446531,
              21.8385324
            ]
          ]
        ]
      }
    },
    {
      "type": "Feature",
      "properties": {
        "name": "住宅街区E-02-067",
        "type": "building",
        "height": 3.4,
        "floor": 2,
        "use": "residential"
      },
      "geometry": {
        "type": "Polygon",
        "coordinates": [
          [
            [
              113.3453684,
              21.8385324
            ],
            [
              114.7453684,
              21.8385324
            ],
            [
              114.7453684,
              23.2385324
            ],
            [
              113.3453684,
              23.2385324
            ],
            [
              113.3453684,
              21.8385324
            ]
          ]
        ]
      }
    },
    {
      "type": "Feature",
      "properties": {
        "name": "住宅街区E-03-068",
        "type": "building",
        "height": 2.8,
        "floor": 1,
        "use": "residential"
      },
      "geometry": {
        "type": "Polygon",
        "coordinates": [
          [
            [
              113.3460837,
              21.8385324
            ],
            [
              114.7460837,
              21.8385324
            ],
            [
              114.7460837,
              23.2385324
            ],
            [
              113.3460837,
              23.2385324
            ],
            [
              113.3460837,
              21.8385324
            ]
          ]
        ]
      }
    },
    {
      "type": "Feature",
      "properties": {
        "name": "住宅街区E-04-069",
        "type": "building",
        "height": 3.2,
        "floor": 2,
        "use": "residential"
      },
      "geometry": {
        "type": "Polygon",
        "coordinates": [
          [
            [
              113.346799,
              21.8385324
            ],
            [
              114.746799,
              21.8385324
            ],
            [
              114.746799,
              23.2385324
            ],
            [
              113.346799,
              23.2385324
            ],
            [
              113.346799,
              21.8385324
            ]
          ]
        ]
      }
    },
    {
      "type": "Feature",
      "properties": {
        "name": "住宅街区E-05-070",
        "type": "building",
        "height": 2.6,
        "floor": 1,
        "use": "residential"
      },
      "geometry": {
        "type": "Polygon",
        "coordinates": [
          [
            [
              113.3475143,
              21.8385324
            ],
            [
              114.7475143,
              21.8385324
            ],
            [
              114.7475143,
              23.2385324
            ],
            [
              113.3475143,
              23.2385324
            ],
            [
              113.3475143,
              21.8385324
            ]
          ]
        ]
      }
    },
    {
      "type": "Feature",
      "properties": {
        "name": "景观树-06-071",
        "type": "tree"
      },
      "geometry": {
        "type": "Polygon",
        "coordinates": [
          [
            [
              113.3417919,
              21.8424964
            ],
            [
              114.7417919,
              21.8424964
            ],
            [
              114.7417919,
              23.2424964
            ],
            [
              113.3417919,
              23.2424964
            ],
            [
              113.3417919,
              21.8424964
            ]
          ]
        ]
      }
    },
    {
      "type": "Feature",
      "properties": {
        "name": "景观树-12-072",
        "type": "tree"
      },
      "geometry": {
        "type": "Polygon",
        "coordinates": [
          [
            [
              113.3439378,
              21.8424964
            ],
            [
              114.7439378,
              21.8424964
            ],
            [
              114.7439378,
              23.2424964
            ],
            [
              113.3439378,
              23.2424964
            ],
            [
              113.3439378,
              21.8424964
            ]
          ]
        ]
      }
    },
    {
      "type": "Feature",
      "properties": {
        "name": "景观树-18-073",
        "type": "tree"
      },
      "geometry": {
        "type": "Polygon",
        "coordinates": [
          [
            [
              113.3460837,
              21.8424964
            ],
            [
              114.7460837,
              21.8424964
            ],
            [
              114.7460837,
              23.2424964
            ],
            [
              113.3460837,
              23.2424964
            ],
            [
              113.3460837,
              21.8424964
            ]
          ]
        ]
      }
    },
    {
      "type": "Feature",
      "properties": {
        "name": "景观树-24-074",
        "type": "tree"
      },
      "geometry": {
        "type": "Polygon",
        "coordinates": [
          [
            [
              113.3482296,
              21.8424964
            ],
            [
              114.7482296,
              21.8424964
            ],
            [
              114.7482296,
              23.2424964
            ],
            [
              113.3482296,
              23.2424964
            ],
            [
              113.3482296,
              21.8424964
            ]
          ]
        ]
      }
    },
    {
      "type": "Feature",
      "properties": {
        "name": "景观树-30-075",
        "type": "tree"
      },
      "geometry": {
        "type": "Polygon",
        "coordinates": [
          [
            [
              113.3503755,
              21.8424964
            ],
            [
              114.7503755,
              21.8424964
            ],
            [
              114.7503755,
              23.2424964
            ],
            [
              113.3503755,
              23.2424964
            ],
            [
              113.3503755,
              21.8424964
            ]
          ]
        ]
      }
    },
    {
      "type": "Feature",
      "properties": {
        "name": "景观树-36-076",
        "type": "tree"
      },
      "geometry": {
        "type": "Polygon",
        "coordinates": [
          [
            [
              113.3525214,
              21.8424964
            ],
            [
              114.7525214,
              21.8424964
            ],
            [
              114.7525214,
              23.2424964
            ],
            [
              113.3525214,
              23.2424964
            ],
            [
              113.3525214,
              21.8424964
            ]
          ]
        ]
      }
    },
    {
      "type": "Feature",
      "properties": {
        "name": "景观树-42-077",
        "type": "tree"
      },
      "geometry": {
        "type": "Polygon",
        "coordinates": [
          [
            [
              113.3546673,
              21.8424964
            ],
            [
              114.7546673,
              21.8424964
            ],
            [
              114.7546673,
              23.2424964
            ],
            [
              113.3546673,
              23.2424964
            ],
            [
              113.3546673,
              21.8424964
            ]
          ]
        ]
      }
    },
    {
      "type": "Feature",
      "properties": {
        "name": "景观树-48-078",
        "type": "tree"
      },
      "geometry": {
        "type": "Polygon",
        "coordinates": [
          [
            [
              113.3568132,
              21.8424964
            ],
            [
              114.7568132,
              21.8424964
            ],
            [
              114.7568132,
              23.2424964
            ],
            [
              113.3568132,
              23.2424964
            ],
            [
              113.3568132,
              21.8424964
            ]
          ]
        ]
      }
    },
    {
      "type": "Feature",
      "properties": {
        "name": "景观树-54-079",
        "type": "tree"
      },
      "geometry": {
        "type": "Polygon",
        "coordinates": [
          [
            [
              113.3589591,
              21.8424964
            ],
            [
              114.7589591,
              21.8424964
            ],
            [
              114.7589591,
              23.2424964
            ],
            [
              113.3589591,
              23.2424964
            ],
            [
              113.3589591,
              21.8424964
            ]
          ]
        ]
      }
    },
    {
      "type": "Feature",
      "properties": {
        "name": "景观树-06-080",
        "type": "tree"
      },
      "geometry": {
        "type": "Polygon",
        "coordinates": [
          [
            [
              113.346799,
              21.8444784
            ],
            [
              114.746799,
              21.8444784
            ],
            [
              114.746799,
              23.2444784
            ],
            [
              113.346799,
              23.2444784
            ],
            [
              113.346799,
              21.8444784
            ]
          ]
        ]
      }
    },
    {
      "type": "Feature",
      "properties": {
        "name": "景观树-12-081",
        "type": "tree"
      },
      "geometry": {
        "type": "Polygon",
        "coordinates": [
          [
            [
              113.3475143,
              21.8457997
            ],
            [
              114.7475143,
              21.8457997
            ],
            [
              114.7475143,
              23.2457997
            ],
            [
              113.3475143,
              23.2457997
            ],
            [
              113.3475143,
              21.8457997
            ]
          ]
        ]
      }
    },
    {
      "type": "Feature",
      "properties": {
        "name": "景观树-18-082",
        "type": "tree"
      },
      "geometry": {
        "type": "Polygon",
        "coordinates": [
          [
            [
              113.3489449,
              21.8444784
            ],
            [
              114.7489449,
              21.8444784
            ],
            [
              114.7489449,
              23.2444784
            ],
            [
              113.3489449,
              23.2444784
            ],
            [
              113.3489449,
              21.8444784
            ]
          ]
        ]
      }
    },
    {
      "type": "Feature",
      "properties": {
        "name": "景观树-24-083",
        "type": "tree"
      },
      "geometry": {
        "type": "Polygon",
        "coordinates": [
          [
            [
              113.3496602,
              21.8457997
            ],
            [
              114.7496602,
              21.8457997
            ],
            [
              114.7496602,
              23.2457997
            ],
            [
              113.3496602,
              23.2457997
            ],
            [
              113.3496602,
              21.8457997
            ]
          ]
        ]
      }
    },
    {
      "type": "Feature",
      "properties": {
        "name": "景观树-30-084",
        "type": "tree"
      },
      "geometry": {
        "type": "Polygon",
        "coordinates": [
          [
            [
              113.3510908,
              21.8444784
            ],
            [
              114.7510908,
              21.8444784
            ],
            [
              114.7510908,
              23.2444784
            ],
            [
              113.3510908,
              23.2444784
            ],
            [
              113.3510908,
              21.8444784
            ]
          ]
        ]
      }
    },
    {
      "type": "Feature",
      "properties": {
        "name": "景观树-36-085",
        "type": "tree"
      },
      "geometry": {
        "type": "Polygon",
        "coordinates": [
          [
            [
              113.3518061,
              21.8457997
            ],
            [
              114.7518061,
              21.8457997
            ],
            [
              114.7518061,
              23.2457997
            ],
            [
              113.3518061,
              23.2457997
            ],
            [
              113.3518061,
              21.8457997
            ]
          ]
        ]
      }
    },
    {
      "type": "Feature",
      "properties": {
        "name": "储能柜-01-086",
        "type": "container_b"
      },
      "geometry": {
        "type": "Polygon",
        "coordinates": [
          [
            [
              113.3532367,
              21.8438177
            ],
            [
              114.7532367,
              21.8438177
            ],
            [
              114.7532367,
              23.2438177
            ],
            [
              113.3532367,
              23.2438177
            ],
            [
              113.3532367,
              21.8438177
            ]
          ]
        ]
      }
    },
    {
      "type": "Feature",
      "properties": {
        "name": "储能柜-03-087",
        "type": "container_b"
      },
      "geometry": {
        "type": "Polygon",
        "coordinates": [
          [
            [
              113.3532367,
              21.845139
            ],
            [
              114.7532367,
              21.845139
            ],
            [
              114.7532367,
              23.245139
            ],
            [
              113.3532367,
              23.245139
            ],
            [
              113.3532367,
              21.845139
            ]
          ]
        ]
      }
    },
    {
      "type": "Feature",
      "properties": {
        "name": "储能柜-05-088",
        "type": "container_b"
      },
      "geometry": {
        "type": "Polygon",
        "coordinates": [
          [
            [
              113.353952,
              21.8438177
            ],
            [
              114.753952,
              21.8438177
            ],
            [
              114.753952,
              23.2438177
            ],
            [
              113.353952,
              23.2438177
            ],
            [
              113.353952,
              21.8438177
            ]
          ]
        ]
      }
    },
    {
      "type": "Feature",
      "properties": {
        "name": "储能柜-07-089",
        "type": "container_b"
      },
      "geometry": {
        "type": "Polygon",
        "coordinates": [
          [
            [
              113.353952,
              21.845139
            ],
            [
              114.753952,
              21.845139
            ],
            [
              114.753952,
              23.245139
            ],
            [
              113.353952,
              23.245139
            ],
            [
              113.353952,
              21.845139
            ]
          ]
        ]
      }
    },
    {
      "type": "Feature",
      "properties": {
        "name": "储能柜-09-090",
        "type": "container_b"
      },
      "geometry": {
        "type": "Polygon",
        "coordinates": [
          [
            [
              113.3546673,
              21.8438177
            ],
            [
              114.7546673,
              21.8438177
            ],
            [
              114.7546673,
              23.2438177
            ],
            [
              113.3546673,
              23.2438177
            ],
            [
              113.3546673,
              21.8438177
            ]
          ]
        ]
      }
    },
    {
      "type": "Feature",
      "properties": {
        "name": "储能柜-11-091",
        "type": "container_b"
      },
      "geometry": {
        "type": "Polygon",
        "coordinates": [
          [
            [
              113.3546673,
              21.845139
            ],
            [
              114.7546673,
              21.845139
            ],
            [
              114.7546673,
              23.245139
            ],
            [
              113.3546673,
              23.245139
            ],
            [
              113.3546673,
              21.845139
            ]
          ]
        ]
      }
    },
    {
      "type": "Feature",
      "properties": {
        "name": "光伏板-01-092",
        "type": "solar_panel_land"
      },
      "geometry": {
        "type": "Polygon",
        "coordinates": [
          [
            [
              113.3560979,
              21.8438177
            ],
            [
              114.7560979,
              21.8438177
            ],
            [
              114.7560979,
              23.2438177
            ],
            [
              113.3560979,
              23.2438177
            ],
            [
              113.3560979,
              21.8438177
            ]
          ]
        ]
      }
    },
    {
      "type": "Feature",
      "properties": {
        "name": "光伏板-03-093",
        "type": "solar_panel_land"
      },
      "geometry": {
        "type": "Polygon",
        "coordinates": [
          [
            [
              113.3560979,
              21.845139
            ],
            [
              114.7560979,
              21.845139
            ],
            [
              114.7560979,
              23.245139
            ],
            [
              113.3560979,
              23.245139
            ],
            [
              113.3560979,
              21.845139
            ]
          ]
        ]
      }
    },
    {
      "type": "Feature",
      "properties": {
        "name": "光伏板-05-094",
        "type": "solar_panel_land"
      },
      "geometry": {
        "type": "Polygon",
        "coordinates": [
          [
            [
              113.3568132,
              21.8438177
            ],
            [
              114.7568132,
              21.8438177
            ],
            [
              114.7568132,
              23.2438177
            ],
            [
              113.3568132,
              23.2438177
            ],
            [
              113.3568132,
              21.8438177
            ]
          ]
        ]
      }
    },
    {
      "type": "Feature",
      "properties": {
        "name": "光伏板-07-095",
        "type": "solar_panel_land"
      },
      "geometry": {
        "type": "Polygon",
        "coordinates": [
          [
            [
              113.3568132,
              21.845139
            ],
            [
              114.7568132,
              21.845139
            ],
            [
              114.7568132,
              23.245139
            ],
            [
              113.3568132,
              23.245139
            ],
            [
              113.3568132,
              21.845139
            ]
          ]
        ]
      }
    },
    {
      "type": "Feature",
      "properties": {
        "name": "光伏板-09-096",
        "type": "solar_panel_land"
      },
      "geometry": {
        "type": "Polygon",
        "coordinates": [
          [
            [
              113.3575285,
              21.8438177
            ],
            [
              114.7575285,
              21.8438177
            ],
            [
              114.7575285,
              23.2438177
            ],
            [
              113.3575285,
              23.2438177
            ],
            [
              113.3575285,
              21.8438177
            ]
          ]
        ]
      }
    },
    {
      "type": "Feature",
      "properties": {
        "name": "光伏板-11-097",
        "type": "solar_panel_land"
      },
      "geometry": {
        "type": "Polygon",
        "coordinates": [
          [
            [
              113.3575285,
              21.845139
            ],
            [
              114.7575285,
              21.845139
            ],
            [
              114.7575285,
              23.245139
            ],
            [
              113.3575285,
              23.245139
            ],
            [
              113.3575285,
              21.845139
            ]
          ]
        ]
      }
    },
    {
      "type": "Feature",
      "properties": {
        "name": "光伏板-13-098",
        "type": "solar_panel_land"
      },
      "geometry": {
        "type": "Polygon",
        "coordinates": [
          [
            [
              113.3582438,
              21.8438177
            ],
            [
              114.7582438,
              21.8438177
            ],
            [
              114.7582438,
              23.2438177
            ],
            [
              113.3582438,
              23.2438177
            ],
            [
              113.3582438,
              21.8438177
            ]
          ]
        ]
      }
    },
    {
      "type": "Feature",
      "properties": {
        "name": "光伏板-15-099",
        "type": "solar_panel_land"
      },
      "geometry": {
        "type": "Polygon",
        "coordinates": [
          [
            [
              113.3582438,
              21.845139
            ],
            [
              114.7582438,
              21.845139
            ],
            [
              114.7582438,
              23.245139
            ],
            [
              113.3582438,
              23.245139
            ],
            [
              113.3582438,
              21.845139
            ]
          ]
        ]
      }
    },
    {
      "type": "Feature",
      "properties": {
        "name": "光伏板-17-100",
        "type": "solar_panel_land"
      },
      "geometry": {
        "type": "Polygon",
        "coordinates": [
          [
            [
              113.3589591,
              21.8438177
            ],
            [
              114.7589591,
              21.8438177
            ],
            [
              114.7589591,
              23.2438177
            ],
            [
              113.3589591,
              23.2438177
            ],
            [
              113.3589591,
              21.8438177
            ]
          ]
        ]
      }
    },
    {
      "type": "Feature",
      "properties": {
        "name": "光伏板-19-101",
        "type": "solar_panel_land"
      },
      "geometry": {
        "type": "Polygon",
        "coordinates": [
          [
            [
              113.3589591,
              21.845139
            ],
            [
              114.7589591,
              21.845139
            ],
            [
              114.7589591,
              23.245139
            ],
            [
              113.3589591,
              23.245139
            ],
            [
              113.3589591,
              21.845139
            ]
          ]
        ]
      }
    },
    {
      "type": "Feature",
      "properties": {
        "name": "景观树-06-102",
        "type": "tree"
      },
      "geometry": {
        "type": "Polygon",
        "coordinates": [
          [
            [
              113.3475143,
              21.8477817
            ],
            [
              114.7475143,
              21.8477817
            ],
            [
              114.7475143,
              23.2477817
            ],
            [
              113.3475143,
              23.2477817
            ],
            [
              113.3475143,
              21.8477817
            ]
          ]
        ]
      }
    },
    {
      "type": "Feature",
      "properties": {
        "name": "景观树-12-103",
        "type": "tree"
      },
      "geometry": {
        "type": "Polygon",
        "coordinates": [
          [
            [
              113.3496602,
              21.8477817
            ],
            [
              114.7496602,
              21.8477817
            ],
            [
              114.7496602,
              23.2477817
            ],
            [
              113.3496602,
              23.2477817
            ],
            [
              113.3496602,
              21.8477817
            ]
          ]
        ]
      }
    },
    {
      "type": "Feature",
      "properties": {
        "name": "景观树-18-104",
        "type": "tree"
      },
      "geometry": {
        "type": "Polygon",
        "coordinates": [
          [
            [
              113.3518061,
              21.8477817
            ],
            [
              114.7518061,
              21.8477817
            ],
            [
              114.7518061,
              23.2477817
            ],
            [
              113.3518061,
              23.2477817
            ],
            [
              113.3518061,
              21.8477817
            ]
          ]
        ]
      }
    },
    {
      "type": "Feature",
      "properties": {
        "name": "储能柜-01-105",
        "type": "container_b"
      },
      "geometry": {
        "type": "Polygon",
        "coordinates": [
          [
            [
              113.3532367,
              21.847121
            ],
            [
              114.7532367,
              21.847121
            ],
            [
              114.7532367,
              23.247121
            ],
            [
              113.3532367,
              23.247121
            ],
            [
              113.3532367,
              21.847121
            ]
          ]
        ]
      }
    },
    {
      "type": "Feature",
      "properties": {
        "name": "储能柜-03-106",
        "type": "container_b"
      },
      "geometry": {
        "type": "Polygon",
        "coordinates": [
          [
            [
              113.353952,
              21.847121
            ],
            [
              114.753952,
              21.847121
            ],
            [
              114.753952,
              23.247121
            ],
            [
              113.353952,
              23.247121
            ],
            [
              113.353952,
              21.847121
            ]
          ]
        ]
      }
    },
    {
      "type": "Feature",
      "properties": {
        "name": "储能柜-05-107",
        "type": "container_b"
      },
      "geometry": {
        "type": "Polygon",
        "coordinates": [
          [
            [
              113.3546673,
              21.847121
            ],
            [
              114.7546673,
              21.847121
            ],
            [
              114.7546673,
              23.247121
            ],
            [
              113.3546673,
              23.247121
            ],
            [
              113.3546673,
              21.847121
            ]
          ]
        ]
      }
    },
    {
      "type": "Feature",
      "properties": {
        "name": "光伏板-01-108",
        "type": "solar_panel_land"
      },
      "geometry": {
        "type": "Polygon",
        "coordinates": [
          [
            [
              113.3560979,
              21.847121
            ],
            [
              114.7560979,
              21.847121
            ],
            [
              114.7560979,
              23.247121
            ],
            [
              113.3560979,
              23.247121
            ],
            [
              113.3560979,
              21.847121
            ]
          ]
        ]
      }
    },
    {
      "type": "Feature",
      "properties": {
        "name": "光伏板-03-109",
        "type": "solar_panel_land"
      },
      "geometry": {
        "type": "Polygon",
        "coordinates": [
          [
            [
              113.3568132,
              21.847121
            ],
            [
              114.7568132,
              21.847121
            ],
            [
              114.7568132,
              23.247121
            ],
            [
              113.3568132,
              23.247121
            ],
            [
              113.3568132,
              21.847121
            ]
          ]
        ]
      }
    },
    {
      "type": "Feature",
      "properties": {
        "name": "光伏板-05-110",
        "type": "solar_panel_land"
      },
      "geometry": {
        "type": "Polygon",
        "coordinates": [
          [
            [
              113.3575285,
              21.847121
            ],
            [
              114.7575285,
              21.847121
            ],
            [
              114.7575285,
              23.247121
            ],
            [
              113.3575285,
              23.247121
            ],
            [
              113.3575285,
              21.847121
            ]
          ]
        ]
      }
    },
    {
      "type": "Feature",
      "properties": {
        "name": "光伏板-07-111",
        "type": "solar_panel_land"
      },
      "geometry": {
        "type": "Polygon",
        "coordinates": [
          [
            [
              113.3582438,
              21.847121
            ],
            [
              114.7582438,
              21.847121
            ],
            [
              114.7582438,
              23.247121
            ],
            [
              113.3582438,
              23.247121
            ],
            [
              113.3582438,
              21.847121
            ]
          ]
        ]
      }
    },
    {
      "type": "Feature",
      "properties": {
        "name": "光伏板-09-112",
        "type": "solar_panel_land"
      },
      "geometry": {
        "type": "Polygon",
        "coordinates": [
          [
            [
              113.3589591,
              21.847121
            ],
            [
              114.7589591,
              21.847121
            ],
            [
              114.7589591,
              23.247121
            ],
            [
              113.3589591,
              23.247121
            ],
            [
              113.3589591,
              21.847121
            ]
          ]
        ]
      }
    },
    {
      "type": "Feature",
      "properties": {
        "name": "充电站-C01-113",
        "type": "charger_fast",
        "zone": "commercial",
        "station_id": "C01",
        "utilization": 0.699
      },
      "geometry": {
        "type": "Polygon",
        "coordinates": [
          [
            [
              113.3403613,
              21.8362201
            ],
            [
              114.7403613,
              21.8362201
            ],
            [
              114.7403613,
              23.2362201
            ],
            [
              113.3403613,
              23.2362201
            ],
            [
              113.3403613,
              21.8362201
            ]
          ]
        ]
      }
    },
    {
      "type": "Feature",
      "properties": {
        "name": "充电站-C02-114",
        "type": "charger_fast",
        "zone": "commercial",
        "station_id": "C02",
        "utilization": 0.549
      },
      "geometry": {
        "type": "Polygon",
        "coordinates": [
          [
            [
              113.3410766,
              21.8362201
            ],
            [
              114.7410766,
              21.8362201
            ],
            [
              114.7410766,
              23.2362201
            ],
            [
              113.3410766,
              23.2362201
            ],
            [
              113.3410766,
              21.8362201
            ]
          ]
        ]
      }
    },
    {
      "type": "Feature",
      "properties": {
        "name": "充电站-C03-115",
        "type": "charger_fast",
        "zone": "commercial",
        "station_id": "C03",
        "utilization": 0.469
      },
      "geometry": {
        "type": "Polygon",
        "coordinates": [
          [
            [
              113.3417919,
              21.8362201
            ],
            [
              114.7417919,
              21.8362201
            ],
            [
              114.7417919,
              23.2362201
            ],
            [
              113.3417919,
              23.2362201
            ],
            [
              113.3417919,
              21.8362201
            ]
          ]
        ]
      }
    },
    {
      "type": "Feature",
      "properties": {
        "name": "充电站-C04-116",
        "type": "charger_fast",
        "zone": "commercial",
        "station_id": "C04",
        "utilization": 0.639
      },
      "geometry": {
        "type": "Polygon",
        "coordinates": [
          [
            [
              113.3425072,
              21.8362201
            ],
            [
              114.7425072,
              21.8362201
            ],
            [
              114.7425072,
              23.2362201
            ],
            [
              113.3425072,
              23.2362201
            ],
            [
              113.3425072,
              21.8362201
            ]
          ]
        ]
      }
    },
    {
      "type": "Feature",
      "properties": {
        "name": "充电站-C05-117",
        "type": "charger_fast",
        "zone": "commercial",
        "station_id": "C05",
        "utilization": 0.676
      },
      "geometry": {
        "type": "Polygon",
        "coordinates": [
          [
            [
              113.3432225,
              21.8362201
            ],
            [
              114.7432225,
              21.8362201
            ],
            [
              114.7432225,
              23.2362201
            ],
            [
              113.3432225,
              23.2362201
            ],
            [
              113.3432225,
              21.8362201
            ]
          ]
        ]
      }
    },
    {
      "type": "Feature",
      "properties": {
        "name": "充电站-C06-118",
        "type": "charger_fast",
        "zone": "commercial",
        "station_id": "C06",
        "utilization": 0.496
      },
      "geometry": {
        "type": "Polygon",
        "coordinates": [
          [
            [
              113.3489449,
              21.8362201
            ],
            [
              114.7489449,
              21.8362201
            ],
            [
              114.7489449,
              23.2362201
            ],
            [
              113.3489449,
              23.2362201
            ],
            [
              113.3489449,
              21.8362201
            ]
          ]
        ]
      }
    },
    {
      "type": "Feature",
      "properties": {
        "name": "充电站-C07-119",
        "type": "charger_fast",
        "zone": "commercial",
        "station_id": "C07",
        "utilization": 0.506
      },
      "geometry": {
        "type": "Polygon",
        "coordinates": [
          [
            [
              113.3496602,
              21.8362201
            ],
            [
              114.7496602,
              21.8362201
            ],
            [
              114.7496602,
              23.2362201
            ],
            [
              113.3496602,
              23.2362201
            ],
            [
              113.3496602,
              21.8362201
            ]
          ]
        ]
      }
    },
    {
      "type": "Feature",
      "properties": {
        "name": "充电站-C08-120",
        "type": "charger_fast",
        "zone": "commercial",
        "station_id": "C08",
        "utilization": 0.683
      },
      "geometry": {
        "type": "Polygon",
        "coordinates": [
          [
            [
              113.3503755,
              21.8362201
            ],
            [
              114.7503755,
              21.8362201
            ],
            [
              114.7503755,
              23.2362201
            ],
            [
              113.3503755,
              23.2362201
            ],
            [
              113.3503755,
              21.8362201
            ]
          ]
        ]
      }
    },
    {
      "type": "Feature",
      "properties": {
        "name": "充电站-C09-121",
        "type": "charger_fast",
        "zone": "commercial",
        "station_id": "C09",
        "utilization": 0.628
      },
      "geometry": {
        "type": "Polygon",
        "coordinates": [
          [
            [
              113.3510908,
              21.8362201
            ],
            [
              114.7510908,
              21.8362201
            ],
            [
              114.7510908,
              23.2362201
            ],
            [
              113.3510908,
              23.2362201
            ],
            [
              113.3510908,
              21.8362201
            ]
          ]
        ]
      }
    },
    {
      "type": "Feature",
      "properties": {
        "name": "充电站-C10-122",
        "type": "charger_fast",
        "zone": "commercial",
        "station_id": "C10",
        "utilization": 0.465
      },
      "geometry": {
        "type": "Polygon",
        "coordinates": [
          [
            [
              113.3518061,
              21.8362201
            ],
            [
              114.7518061,
              21.8362201
            ],
            [
              114.7518061,
              23.2362201
            ],
            [
              113.3518061,
              23.2362201
            ],
            [
              113.3518061,
              21.8362201
            ]
          ]
        ]
      }
    },
    {
      "type": "Feature",
      "properties": {
        "name": "充电站-C11-123",
        "type": "charger_fast",
        "zone": "commercial",
        "station_id": "C11",
        "utilization": 0.562
      },
      "geometry": {
        "type": "Polygon",
        "coordinates": [
          [
            [
              113.3446531,
              21.8382021
            ],
            [
              114.7446531,
              21.8382021
            ],
            [
              114.7446531,
              23.2382021
            ],
            [
              113.3446531,
              23.2382021
            ],
            [
              113.3446531,
              21.8382021
            ]
          ]
        ]
      }
    },
    {
      "type": "Feature",
      "properties": {
        "name": "充电站-C12-124",
        "type": "charger_fast",
        "zone": "commercial",
        "station_id": "C12",
        "utilization": 0.7
      },
      "geometry": {
        "type": "Polygon",
        "coordinates": [
          [
            [
              113.3453684,
              21.8382021
            ],
            [
              114.7453684,
              21.8382021
            ],
            [
              114.7453684,
              23.2382021
            ],
            [
              113.3453684,
              23.2382021
            ],
            [
              113.3453684,
              21.8382021
            ]
          ]
        ]
      }
    },
    {
      "type": "Feature",
      "properties": {
        "name": "充电站-C13-125",
        "type": "charger_fast",
        "zone": "commercial",
        "station_id": "C13",
        "utilization": 0.567
      },
      "geometry": {
        "type": "Polygon",
        "coordinates": [
          [
            [
              113.3460837,
              21.8382021
            ],
            [
              114.7460837,
              21.8382021
            ],
            [
              114.7460837,
              23.2382021
            ],
            [
              113.3460837,
              23.2382021
            ],
            [
              113.3460837,
              21.8382021
            ]
          ]
        ]
      }
    },
    {
      "type": "Feature",
      "properties": {
        "name": "充电站-C14-126",
        "type": "charger_fast",
        "zone": "commercial",
        "station_id": "C14",
        "utilization": 0.463
      },
      "geometry": {
        "type": "Polygon",
        "coordinates": [
          [
            [
              113.346799,
              21.8382021
            ],
            [
              114.746799,
              21.8382021
            ],
            [
              114.746799,
              23.2382021
            ],
            [
              113.346799,
              23.2382021
            ],
            [
              113.346799,
              21.8382021
            ]
          ]
        ]
      }
    },
    {
      "type": "Feature",
      "properties": {
        "name": "充电站-S15-127",
        "type": "charger_slow",
        "zone": "park",
        "station_id": "S15",
        "utilization": 0.303
      },
      "geometry": {
        "type": "Polygon",
        "coordinates": [
          [
            [
              113.3503755,
              21.8405745
            ],
            [
              114.7503755,
              21.8405745
            ],
            [
              114.7503755,
              23.2405745
            ],
            [
              113.3503755,
              23.2405745
            ],
            [
              113.3503755,
              21.8405745
            ]
          ]
        ]
      }
    },
    {
      "type": "Feature",
      "properties": {
        "name": "充电站-S16-128",
        "type": "charger_slow",
        "zone": "park",
        "station_id": "S16",
        "utilization": 0.366
      },
      "geometry": {
        "type": "Polygon",
        "coordinates": [
          [
            [
              113.3510908,
              21.8405745
            ],
            [
              114.7510908,
              21.8405745
            ],
            [
              114.7510908,
              23.2405745
            ],
            [
              113.3510908,
              23.2405745
            ],
            [
              113.3510908,
              21.8405745
            ]
          ]
        ]
      }
    },
    {
      "type": "Feature",
      "properties": {
        "name": "充电站-S17-129",
        "type": "charger_slow",
        "zone": "park",
        "station_id": "S17",
        "utilization": 0.19
      },
      "geometry": {
        "type": "Polygon",
        "coordinates": [
          [
            [
              113.3518061,
              21.8405745
            ],
            [
              114.7518061,
              21.8405745
            ],
            [
              114.7518061,
              23.2405745
            ],
            [
              113.3518061,
              23.2405745
            ],
            [
              113.3518061,
              21.8405745
            ]
          ]
        ]
      }
    },
    {
      "type": "Feature",
      "properties": {
        "name": "充电站-S18-130",
        "type": "charger_slow",
        "zone": "lot",
        "station_id": "S18",
        "utilization": 0.173
      },
      "geometry": {
        "type": "Polygon",
        "coordinates": [
          [
            [
              113.3403613,
              21.847121
            ],
            [
              114.7403613,
              21.847121
            ],
            [
              114.7403613,
              23.247121
            ],
            [
              113.3403613,
              23.247121
            ],
            [
              113.3403613,
              21.847121
            ]
          ]
        ]
      }
    },
    {
      "type": "Feature",
      "properties": {
        "name": "充电站-S19-131",
        "type": "charger_slow",
        "zone": "lot",
        "station_id": "S19",
        "utilization": 0.353
      },
      "geometry": {
        "type": "Polygon",
        "coordinates": [
          [
            [
              113.3410766,
              21.847121
            ],
            [
              114.7410766,
              21.847121
            ],
            [
              114.7410766,
              23.247121
            ],
            [
              113.3410766,
              23.247121
            ],
            [
              113.3410766,
              21.847121
            ]
          ]
        ]
      }
    },
    {
      "type": "Feature",
      "properties": {
        "name": "充电站-S20-132",
        "type": "charger_slow",
        "zone": "lot",
        "station_id": "S20",
        "utilization": 0.323
      },
      "geometry": {
        "type": "Polygon",
        "coordinates": [
          [
            [
              113.3417919,
              21.847121
            ],
            [
              114.7417919,
              21.847121
            ],
            [
              114.7417919,
              23.247121
            ],
            [
              113.3417919,
              23.247121
            ],
            [
              113.3417919,
              21.847121
            ]
          ]
        ]
      }
    },
    {
      "type": "Feature",
      "properties": {
        "name": "充电站-S21-133",
        "type": "charger_slow",
        "zone": "lot",
        "station_id": "S21",
        "utilization": 0.151
      },
      "geometry": {
        "type": "Polygon",
        "coordinates": [
          [
            [
              113.3425072,
              21.847121
            ],
            [
              114.7425072,
              21.847121
            ],
            [
              114.7425072,
              23.247121
            ],
            [
              113.3425072,
              23.247121
            ],
            [
              113.3425072,
              21.847121
            ]
          ]
        ]
      }
    },
    {
      "type": "Feature",
      "properties": {
        "name": "充电站-S22-134",
        "type": "charger_slow",
        "zone": "lot",
        "station_id": "S22",
        "utilization": 0.225
      },
      "geometry": {
        "type": "Polygon",
        "coordinates": [
          [
            [
              113.3403613,
              21.8477817
            ],
            [
              114.7403613,
              21.8477817
            ],
            [
              114.7403613,
              23.2477817
            ],
            [
              113.3403613,
              23.2477817
            ],
            [
              113.3403613,
              21.8477817
            ]
          ]
        ]
      }
    },
    {
      "type": "Feature",
      "properties": {
        "name": "充电站-S23-135",
        "type": "charger_slow",
        "zone": "lot",
        "station_id": "S23",
        "utilization": 0.378
      },
      "geometry": {
        "type": "Polygon",
        "coordinates": [
          [
            [
              113.3410766,
              21.8477817
            ],
            [
              114.7410766,
              21.8477817
            ],
            [
              114.7410766,
              23.2477817
            ],
            [
              113.3410766,
              23.2477817
            ],
            [
              113.3410766,
              21.8477817
            ]
          ]
        ]
      }
    },
    {
      "type": "Feature",
      "properties": {
        "name": "充电站-S24-136",
        "type": "charger_slow",
        "zone": "lot",
        "station_id": "S24",
        "utilization": 0.265
      },
      "geometry": {
        "type": "Polygon",
        "coordinates": [
          [
            [
              113.3417919,
              21.8477817
            ],
            [
              114.7417919,
              21.8477817
            ],
            [
              114.7417919,
              23.2477817
            ],
            [
              113.3417919,
              23.2477817
            ],
            [
              113.3417919,
              21.8477817
            ]
          ]
        ]
      }
    },
    {
      "type": "Feature",
      "properties": {
        "name": "充电站-S25-137",
        "type": "charger_slow",
        "zone": "lot",
        "station_id": "S25",
        "utilization": 0.14
      },
      "geometry": {
        "type": "Polygon",
        "coordinates": [
          [
            [
              113.3425072,
              21.8477817
            ],
            [
              114.7425072,
              21.8477817
            ],
            [
              114.7425072,
              23.2477817
            ],
            [
              113.3425072,
              23.2477817
            ],
            [
              113.3425072,
              21.8477817
            ]
          ]
        ]
      }
    }
  ]
}